[{"OBJECT_NAME":"ONEWEB-0274","OBJECT_ID":"2021-060AB","EPOCH":"2026-03-09T21:53:58.822368","MEAN_MOTION":13.16593541,"ECCENTRICITY":0.00013385,"INCLINATION":87.8994,"RA_OF_ASC_NODE":248.5411,"ARG_OF_PERICENTER":103.9093,"MEAN_ANOMALY":256.2187,"EPHEMERIS_TYPE":0,"CLASSIFICATION_TYPE":"U","NORAD_CAT_ID":48992,"ELEMENT_SET_NO":999,"REV_AT_EPOCH":22656,"BSTAR":-0.00024860459,"MEAN_MOTION_DOT":-8.2e-7,"MEAN_MOTION_DDOT":0},{"OBJECT_NAME":"SL-14 DEB","OBJECT_ID":"1991-056G","EPOCH":"2026-03-09T09:38:36.351168","MEAN_MOTION":13.22410673,"ECCENTRICITY":0.00312585,"INCLINATION":82.5698,"RA_OF_ASC_NODE":198.6039,"ARG_OF_PERICENTER":292.5098,"MEAN_ANOMALY":67.2719,"EPHEMERIS_TYPE":0,"CLASSIFICATION_TYPE":"U","NORAD_CAT_ID":45270,"ELEMENT_SET_NO":999,"REV_AT_EPOCH":29286,"BSTAR":0.0005568069,"MEAN_MOTION_DOT":2.45e-6,"MEAN_MOTION_DDOT":0}]
